[{"OBJECT_NAME":"STARLINK-3598","OBJECT_ID":"2022-022AX","EPOCH":"2026-03-09T04:47:15.392544","MEAN_MOTION":15.08842429,"ECCENTRICITY":0.00015944,"INCLINATION":53.2201,"RA_OF_ASC_NODE":1.3173,"ARG_OF_PERICENTER":88.0274,"MEAN_ANOMALY":272.0901,"EPHEMERIS_TYPE":0,"CLASSIFICATION_TYPE":"U","NORAD_CAT_ID":51897,"ELEMENT_SET_NO":999,"REV_AT_EPOCH":22317,"BSTAR":5.2171769e-5,"MEAN_MOTION_DOT":5.42e-6,"MEAN_MOTION_DDOT":0},{"OBJECT_NAME":"FALCON 9 DEB","OBJECT_ID":"2021-041BL","EPOCH":"2026-03-09T15:17:24.182016","MEAN_MOTION":15.12006404,"ECCENTRICITY":0.0011978,"INCLINATION":53.0274,"RA_OF_ASC_NODE":188.0035,"ARG_OF_PERICENTER":181.8726,"MEAN_ANOMALY":178.2223,"EPHEMERIS_TYPE":0,"CLASSIFICATION_TYPE":"U","NORAD_CAT_ID":48837,"ELEMENT_SET_NO":999,"REV_AT_EPOCH":26181,"BSTAR":0.00029601,"MEAN_MOTION_DOT":4.852e-5,"MEAN_MOTION_DDOT":0}]
